ONEWEB-0033             
1 45142U 20008M   26149.19251816 -.00000633  00000+0 -18484-2 0  9991
2 45142  87.8850  40.0596 0001316  83.6197 276.5080 13.10374844305723
ONEWEB-0035             
1 45143U 20008N   26149.13625529  .00000479  00000+0  13370-2 0  9997
2 45143  87.8853  40.0636 0001706  79.7504 280.3816 13.10375058305440
ONEWEB-0036             
1 45144U 20008P   26149.18087856 -.00000588  00000+0 -17359-2 0  9992
2 45144  87.8866  40.0605 0002041  80.7739 279.3619 13.09819709305876
ONEWEB-0038             
1 45145U 20008Q   26149.17097904  .00000483  00000+0  13262-2 0  9998
2 45145  87.8925  24.8581 0001874  28.0024 332.1204 13.11417652307831
ONEWEB-0039             
1 45146U 20008R   26149.19584969 -.00000349  00000+0 -10356-2 0  9997
2 45146  87.8855  40.0491 0002255  72.8587 287.2787 13.10376289305674
ONEWEB-0040             
1 45147U 20008S   26149.18920120 -.00000571  00000+0 -16709-2 0  9995
2 45147  87.8851  40.0615 0001825  76.5749 283.5582 13.10373488305379
ONEWEB-0043             
1 45149U 20008U   26149.19086950 -.00000494  00000+0 -14506-2 0  9999
2 45149  87.8853  40.0479 0002333  74.3139 285.8245 13.10374611305690
ONEWEB-0044             
1 45150U 20008V   26149.14274916  .00000663  00000+0  18627-2 0  9991
2 45150  87.8862  40.0567 0001928  76.2770 283.8572 13.10375185305981
ONEWEB-0045             
1 45151U 20008W   26149.01316258  .00000236  00000+0  63137-3 0  9997
2 45151  87.8916  24.8732 0001854  79.3347 280.7990 13.11417827307891
ONEWEB-0047             
1 45152U 20008X   26148.75418279  .00000524  00000+0  14660-2 0  9990
2 45152  87.8861  40.1339 0001637  75.5840 284.5469 13.10374379305658
ONEWEB-0048             
1 45153U 20008Y   26149.13111992  .00000230  00000+0  62170-3 0  9990
2 45153  87.8857  40.0815 0001729  78.8793 281.2529 13.10376867305315
ONEWEB-0049             
1 45154U 20008Z   26149.13431069  .00000399  00000+0  11067-2 0  9995
2 45154  87.8857  40.0699 0002140  88.0471 272.0902 13.10376106305533
ONEWEB-0051             
1 45155U 20008AA  26149.08776870  .00000173  00000+0  45093-3 0  9999
2 45155  87.8909  24.8673 0001809  82.8989 277.2344 13.11418105308583
ONEWEB-0052             
1 45156U 20008AB  26148.77272116  .00000508  00000+0  14186-2 0  9999
2 45156  87.8852  40.1274 0002197  88.4361 271.7017 13.10371490305392
ONEWEB-0053             
1 45157U 20008AC  26149.18753963 -.00000321  00000+0 -95496-3 0  9999
2 45157  87.8850  40.0676 0002113  80.2584 279.8782 13.10375099305422
ONEWEB-0054             
1 45158U 20008AD  26148.68792441  .00000638  00000+0  17903-2 0  9993
2 45158  87.8860  40.1476 0001848  81.8524 278.2812 13.10373816305475
