[{"OBJECT_NAME":"ONEWEB-0033","OBJECT_ID":"2020-008M","EPOCH":"2026-05-29T04:37:13.569024","MEAN_MOTION":13.10374844,"ECCENTRICITY":0.0001316,"INCLINATION":87.885,"RA_OF_ASC_NODE":40.0596,"ARG_OF_PERICENTER":83.6197,"MEAN_ANOMALY":276.508,"EPHEMERIS_TYPE":0,"CLASSIFICATION_TYPE":"U","NORAD_CAT_ID":45142,"ELEMENT_SET_NO":999,"REV_AT_EPOCH":30572,"BSTAR":-0.0018484,"MEAN_MOTION_DOT":-6.33e-06,"MEAN_MOTION_DDOT":0.0},{"OBJECT_NAME":"ONEWEB-0035","OBJECT_ID":"2020-008N","EPOCH":"2026-05-29T03:16:12.457056","MEAN_MOTION":13.10375058,"ECCENTRICITY":0.0001706,"INCLINATION":87.8853,"RA_OF_ASC_NODE":40.0636,"ARG_OF_PERICENTER":79.7504,"MEAN_ANOMALY":280.3816,"EPHEMERIS_TYPE":0,"CLASSIFICATION_TYPE":"U","NORAD_CAT_ID":45143,"ELEMENT_SET_NO":999,"REV_AT_EPOCH":30544,"BSTAR":0.001337,"MEAN_MOTION_DOT":4.79e-06,"MEAN_MOTION_DDOT":0.0},{"OBJECT_NAME":"ONEWEB-0036","OBJECT_ID":"2020-008P","EPOCH":"2026-05-29T04:20:27.907584","MEAN_MOTION":13.09819709,"ECCENTRICITY":0.0002041,"INCLINATION":87.8866,"RA_OF_ASC_NODE":40.0605,"ARG_OF_PERICENTER":80.7739,"MEAN_ANOMALY":279.3619,"EPHEMERIS_TYPE":0,"CLASSIFICATION_TYPE":"U","NORAD_CAT_ID":45144,"ELEMENT_SET_NO":999,"REV_AT_EPOCH":30587,"BSTAR":-0.0017359,"MEAN_MOTION_DOT":-5.88e-06,"MEAN_MOTION_DDOT":0.0},{"OBJECT_NAME":"ONEWEB-0038","OBJECT_ID":"2020-008Q","EPOCH":"2026-05-29T04:06:12.589056","MEAN_MOTION":13.11417652,"ECCENTRICITY":0.0001874,"INCLINATION":87.8925,"RA_OF_ASC_NODE":24.8581,"ARG_OF_PERICENTER":28.0024,"MEAN_ANOMALY":332.1204,"EPHEMERIS_TYPE":0,"CLASSIFICATION_TYPE":"U","NORAD_CAT_ID":45145,"ELEMENT_SET_NO":999,"REV_AT_EPOCH":30783,"BSTAR":0.0013261999999999998,"MEAN_MOTION_DOT":4.83e-06,"MEAN_MOTION_DDOT":0.0},{"OBJECT_NAME":"ONEWEB-0039","OBJECT_ID":"2020-008R","EPOCH":"2026-05-29T04:42:01.413216","MEAN_MOTION":13.10376289,"ECCENTRICITY":0.0002255,"INCLINATION":87.8855,"RA_OF_ASC_NODE":40.0491,"ARG_OF_PERICENTER":72.8587,"MEAN_ANOMALY":287.2787,"EPHEMERIS_TYPE":0,"CLASSIFICATION_TYPE":"U","NORAD_CAT_ID":45146,"ELEMENT_SET_NO":999,"REV_AT_EPOCH":30567,"BSTAR":-0.0010356,"MEAN_MOTION_DOT":-3.49e-06,"MEAN_MOTION_DDOT":0.0},{"OBJECT_NAME":"ONEWEB-0040","OBJECT_ID":"2020-008S","EPOCH":"2026-05-29T04:32:26.983680","MEAN_MOTION":13.10373488,"ECCENTRICITY":0.0001825,"INCLINATION":87.8851,"RA_OF_ASC_NODE":40.0615,"ARG_OF_PERICENTER":76.5749,"MEAN_ANOMALY":283.5582,"EPHEMERIS_TYPE":0,"CLASSIFICATION_TYPE":"U","NORAD_CAT_ID":45147,"ELEMENT_SET_NO":999,"REV_AT_EPOCH":30537,"BSTAR":-0.0016709,"MEAN_MOTION_DOT":-5.71e-06,"MEAN_MOTION_DDOT":0.0},{"OBJECT_NAME":"ONEWEB-0043","OBJECT_ID":"2020-008U","EPOCH":"2026-05-29T04:34:51.124800","MEAN_MOTION":13.10374611,"ECCENTRICITY":0.0002333,"INCLINATION":87.8853,"RA_OF_ASC_NODE":40.0479,"ARG_OF_PERICENTER":74.3139,"MEAN_ANOMALY":285.8245,"EPHEMERIS_TYPE":0,"CLASSIFICATION_TYPE":"U","NORAD_CAT_ID":45149,"ELEMENT_SET_NO":999,"REV_AT_EPOCH":30569,"BSTAR":-0.0014506,"MEAN_MOTION_DOT":-4.94e-06,"MEAN_MOTION_DDOT":0.0},{"OBJECT_NAME":"ONEWEB-0044","OBJECT_ID":"2020-008V","EPOCH":"2026-05-29T03:25:33.527424","MEAN_MOTION":13.10375185,"ECCENTRICITY":0.0001928,"INCLINATION":87.8862,"RA_OF_ASC_NODE":40.0567,"ARG_OF_PERICENTER":76.277,"MEAN_ANOMALY":283.8572,"EPHEMERIS_TYPE":0,"CLASSIFICATION_TYPE":"U","NORAD_CAT_ID":45150,"ELEMENT_SET_NO":999,"REV_AT_EPOCH":30598,"BSTAR":0.0018627,"MEAN_MOTION_DOT":6.63e-06,"MEAN_MOTION_DDOT":0.0},{"OBJECT_NAME":"ONEWEB-0045","OBJECT_ID":"2020-008W","EPOCH":"2026-05-29T00:18:57.246912","MEAN_MOTION":13.11417827,"ECCENTRICITY":0.0001854,"INCLINATION":87.8916,"RA_OF_ASC_NODE":24.8732,"ARG_OF_PERICENTER":79.3347,"MEAN_ANOMALY":280.799,"EPHEMERIS_TYPE":0,"CLASSIFICATION_TYPE":"U","NORAD_CAT_ID":45151,"ELEMENT_SET_NO":999,"REV_AT_EPOCH":30789,"BSTAR":0.00063137,"MEAN_MOTION_DOT":2.36e-06,"MEAN_MOTION_DDOT":0.0},{"OBJECT_NAME":"ONEWEB-0047","OBJECT_ID":"2020-008X","EPOCH":"2026-05-28T18:06:01.393056","MEAN_MOTION":13.10374379,"ECCENTRICITY":0.0001637,"INCLINATION":87.8861,"RA_OF_ASC_NODE":40.1339,"ARG_OF_PERICENTER":75.584,"MEAN_ANOMALY":284.5469,"EPHEMERIS_TYPE":0,"CLASSIFICATION_TYPE":"U","NORAD_CAT_ID":45152,"ELEMENT_SET_NO":999,"REV_AT_EPOCH":30565,"BSTAR":0.001466,"MEAN_MOTION_DOT":5.24e-06,"MEAN_MOTION_DDOT":0.0},{"OBJECT_NAME":"ONEWEB-0048","OBJECT_ID":"2020-008Y","EPOCH":"2026-05-29T03:08:48.761088","MEAN_MOTION":13.10376867,"ECCENTRICITY":0.0001729,"INCLINATION":87.8857,"RA_OF_ASC_NODE":40.0815,"ARG_OF_PERICENTER":78.8793,"MEAN_ANOMALY":281.2529,"EPHEMERIS_TYPE":0,"CLASSIFICATION_TYPE":"U","NORAD_CAT_ID":45153,"ELEMENT_SET_NO":999,"REV_AT_EPOCH":30531,"BSTAR":0.0006217000000000001,"MEAN_MOTION_DOT":2.3e-06,"MEAN_MOTION_DDOT":0.0},{"OBJECT_NAME":"ONEWEB-0049","OBJECT_ID":"2020-008Z","EPOCH":"2026-05-29T03:13:24.443616","MEAN_MOTION":13.10376106,"ECCENTRICITY":0.000214,"INCLINATION":87.8857,"RA_OF_ASC_NODE":40.0699,"ARG_OF_PERICENTER":88.0471,"MEAN_ANOMALY":272.0902,"EPHEMERIS_TYPE":0,"CLASSIFICATION_TYPE":"U","NORAD_CAT_ID":45154,"ELEMENT_SET_NO":999,"REV_AT_EPOCH":30553,"BSTAR":0.0011067000000000002,"MEAN_MOTION_DOT":3.99e-06,"MEAN_MOTION_DDOT":0.0},{"OBJECT_NAME":"ONEWEB-0051","OBJECT_ID":"2020-008AA","EPOCH":"2026-05-29T02:06:23.215680","MEAN_MOTION":13.11418105,"ECCENTRICITY":0.0001809,"INCLINATION":87.8909,"RA_OF_ASC_NODE":24.8673,"ARG_OF_PERICENTER":82.8989,"MEAN_ANOMALY":277.2344,"EPHEMERIS_TYPE":0,"CLASSIFICATION_TYPE":"U","NORAD_CAT_ID":45155,"ELEMENT_SET_NO":999,"REV_AT_EPOCH":30858,"BSTAR":0.00045093,"MEAN_MOTION_DOT":1.73e-06,"MEAN_MOTION_DDOT":0.0},{"OBJECT_NAME":"ONEWEB-0052","OBJECT_ID":"2020-008AB","EPOCH":"2026-05-28T18:32:43.108224","MEAN_MOTION":13.1037149,"ECCENTRICITY":0.0002197,"INCLINATION":87.8852,"RA_OF_ASC_NODE":40.1274,"ARG_OF_PERICENTER":88.4361,"MEAN_ANOMALY":271.7017,"EPHEMERIS_TYPE":0,"CLASSIFICATION_TYPE":"U","NORAD_CAT_ID":45156,"ELEMENT_SET_NO":999,"REV_AT_EPOCH":30539,"BSTAR":0.0014186000000000001,"MEAN_MOTION_DOT":5.08e-06,"MEAN_MOTION_DDOT":0.0},{"OBJECT_NAME":"ONEWEB-0053","OBJECT_ID":"2020-008AC","EPOCH":"2026-05-29T04:30:03.424032","MEAN_MOTION":13.10375099,"ECCENTRICITY":0.0002113,"INCLINATION":87.885,"RA_OF_ASC_NODE":40.0676,"ARG_OF_PERICENTER":80.2584,"MEAN_ANOMALY":279.8782,"EPHEMERIS_TYPE":0,"CLASSIFICATION_TYPE":"U","NORAD_CAT_ID":45157,"ELEMENT_SET_NO":999,"REV_AT_EPOCH":30542,"BSTAR":-0.00095496,"MEAN_MOTION_DOT":-3.21e-06,"MEAN_MOTION_DDOT":0.0},{"OBJECT_NAME":"ONEWEB-0054","OBJECT_ID":"2020-008AD","EPOCH":"2026-05-28T16:30:36.669024","MEAN_MOTION":13.10373816,"ECCENTRICITY":0.0001848,"INCLINATION":87.886,"RA_OF_ASC_NODE":40.1476,"ARG_OF_PERICENTER":81.8524,"MEAN_ANOMALY":278.2812,"EPHEMERIS_TYPE":0,"CLASSIFICATION_TYPE":"U","NORAD_CAT_ID":45158,"ELEMENT_SET_NO":999,"REV_AT_EPOCH":30547,"BSTAR":0.0017902999999999999,"MEAN_MOTION_DOT":6.38e-06,"MEAN_MOTION_DDOT":0.0}]